{
  "norad_id": 58091,
  "name": "STARLINK-30608",
  "history": [
    {
      "epoch": "2026-03-28T23:00:06.267168Z",
      "apogee_km": 486.33370430841296,
      "perigee_km": 484.7153901888032,
      "latitude_deg": 2.9046799001530174e-05,
      "longitude_deg": 157.58413389335857,
      "height_km": 485.54533099020944,
      "semi_major_axis_km": 6863.661547248607,
      "eccentricity": 0.00011789,
      "inclination_deg": 43.0029,
      "raan_deg": 328.9816,
      "arg_perigee_deg": 252.4532,
      "mean_anomaly_deg": 107.6191,
      "mean_motion_rev_day": 15.26753668
    },
    {
      "epoch": "2026-03-29T02:08:31.168896Z",
      "apogee_km": 486.57813474824616,
      "perigee_km": 484.48059830663624,
      "latitude_deg": 1.3075400042984947e-05,
      "longitude_deg": 109.6110941874647,
      "height_km": 485.3910740497227,
      "semi_major_axis_km": 6863.666366527441,
      "eccentricity": 0.0001528,
      "inclination_deg": 43.0019,
      "raan_deg": 328.2413,
      "arg_perigee_deg": 265.3718,
      "mean_anomaly_deg": 94.6959,
      "mean_motion_rev_day": 15.2675206
    }
  ]
}